[{"OBJECT_NAME":"STARLINK-37061","OBJECT_ID":"2026-050U","EPOCH":"2026-03-19T13:35:07.527840","MEAN_MOTION":15.99892771,"ECCENTRICITY":6.87e-5,"INCLINATION":53.1616,"RA_OF_ASC_NODE":232.5178,"ARG_OF_PERICENTER":57.4494,"MEAN_ANOMALY":302.6603,"EPHEMERIS_TYPE":0,"CLASSIFICATION_TYPE":"U","NORAD_CAT_ID":68185,"ELEMENT_SET_NO":999,"REV_AT_EPOCH":203,"BSTAR":-0.0016679,"MEAN_MOTION_DOT":-0.0087302,"MEAN_MOTION_DDOT":0.00025966},{"OBJECT_NAME":"STARLINK-37079","OBJECT_ID":"2026-050V","EPOCH":"2026-03-19T13:34:46.972416","MEAN_MOTION":16.00099925,"ECCENTRICITY":0.0001058,"INCLINATION":53.162,"RA_OF_ASC_NODE":232.5158,"ARG_OF_PERICENTER":326.7573,"MEAN_ANOMALY":33.3392,"EPHEMERIS_TYPE":0,"CLASSIFICATION_TYPE":"U","NORAD_CAT_ID":68186,"ELEMENT_SET_NO":999,"REV_AT_EPOCH":203,"BSTAR":-0.0012815,"MEAN_MOTION_DOT":-0.00680419,"MEAN_MOTION_DDOT":0.00016664},{"OBJECT_NAME":"STARLINK-37006","OBJECT_ID":"2026-050W","EPOCH":"2026-03-19T13:34:25.626432","MEAN_MOTION":16.00247413,"ECCENTRICITY":7.2e-5,"INCLINATION":53.162,"RA_OF_ASC_NODE":232.5147,"ARG_OF_PERICENTER":325.802,"MEAN_ANOMALY":34.2964,"EPHEMERIS_TYPE":0,"CLASSIFICATION_TYPE":"U","NORAD_CAT_ID":68187,"ELEMENT_SET_NO":999,"REV_AT_EPOCH":203,"BSTAR":-0.0012753,"MEAN_MOTION_DOT":-0.00682857,"MEAN_MOTION_DDOT":0.00016797},{"OBJECT_NAME":"STARLINK-36340","OBJECT_ID":"2026-050X","EPOCH":"2026-03-19T13:34:08.257440","MEAN_MOTION":16.00370058,"ECCENTRICITY":8.84e-5,"INCLINATION":53.1619,"RA_OF_ASC_NODE":232.5131,"ARG_OF_PERICENTER":330.3319,"MEAN_ANOMALY":29.7662,"EPHEMERIS_TYPE":0,"CLASSIFICATION_TYPE":"U","NORAD_CAT_ID":68188,"ELEMENT_SET_NO":999,"REV_AT_EPOCH":193,"BSTAR":-0.0012834,"MEAN_MOTION_DOT":-0.00691967,"MEAN_MOTION_DDOT":0.0001722},{"OBJECT_NAME":"STARLINK-36305","OBJECT_ID":"2026-050Y","EPOCH":"2026-03-19T13:33:49.347072","MEAN_MOTION":16.00507461,"ECCENTRICITY":6.64e-5,"INCLINATION":53.1619,"RA_OF_ASC_NODE":232.5118,"ARG_OF_PERICENTER":330.0991,"MEAN_ANOMALY":30.0002,"EPHEMERIS_TYPE":0,"CLASSIFICATION_TYPE":"U","NORAD_CAT_ID":68189,"ELEMENT_SET_NO":999,"REV_AT_EPOCH":193,"BSTAR":-0.0012521,"MEAN_MOTION_DOT":-0.00680572,"MEAN_MOTION_DDOT":0.00016745},{"OBJECT_NAME":"STARLINK-37071","OBJECT_ID":"2026-050Z","EPOCH":"2026-03-19T13:33:09.686880","MEAN_MOTION":16.00795573,"ECCENTRICITY":7.87e-5,"INCLINATION":53.162,"RA_OF_ASC_NODE":232.5085,"ARG_OF_PERICENTER":120.8561,"MEAN_ANOMALY":239.2548,"EPHEMERIS_TYPE":0,"CLASSIFICATION_TYPE":"U","NORAD_CAT_ID":68190,"ELEMENT_SET_NO":999,"REV_AT_EPOCH":203,"BSTAR":-0.001241,"MEAN_MOTION_DOT":-0.00685813,"MEAN_MOTION_DDOT":0.00017028},{"OBJECT_NAME":"STARLINK-37091","OBJECT_ID":"2026-050AA","EPOCH":"2026-03-19T13:32:49.437312","MEAN_MOTION":16.00938134,"ECCENTRICITY":7.18e-5,"INCLINATION":53.1618,"RA_OF_ASC_NODE":232.5067,"ARG_OF_PERICENTER":334.018,"MEAN_ANOMALY":26.0815,"EPHEMERIS_TYPE":0,"CLASSIFICATION_TYPE":"U","NORAD_CAT_ID":68191,"ELEMENT_SET_NO":999,"REV_AT_EPOCH":203,"BSTAR":-0.0011877,"MEAN_MOTION_DOT":-0.00661998,"MEAN_MOTION_DDOT":0.00016019},{"OBJECT_NAME":"STARLINK-37098","OBJECT_ID":"2026-050AB","EPOCH":"2026-03-19T13:32:29.433984","MEAN_MOTION":16.01069674,"ECCENTRICITY":6.47e-5,"INCLINATION":53.1618,"RA_OF_ASC_NODE":232.5054,"ARG_OF_PERICENTER":327.3796,"MEAN_ANOMALY":32.7195,"EPHEMERIS_TYPE":0,"CLASSIFICATION_TYPE":"U","NORAD_CAT_ID":68192,"ELEMENT_SET_NO":999,"REV_AT_EPOCH":203,"BSTAR":-0.0012086,"MEAN_MOTION_DOT":-0.00678632,"MEAN_MOTION_DDOT":0.00016763},{"OBJECT_NAME":"STARLINK-37090","OBJECT_ID":"2026-050AC","EPOCH":"2026-03-19T13:31:47.877312","MEAN_MOTION":16.01369308,"ECCENTRICITY":7.11e-5,"INCLINATION":53.1621,"RA_OF_ASC_NODE":232.5012,"ARG_OF_PERICENTER":333.6069,"MEAN_ANOMALY":26.4927,"EPHEMERIS_TYPE":0,"CLASSIFICATION_TYPE":"U","NORAD_CAT_ID":68193,"ELEMENT_SET_NO":999,"REV_AT_EPOCH":203,"BSTAR":-0.0011396,"MEAN_MOTION_DOT":-0.00651387,"MEAN_MOTION_DDOT":0.00015641},{"OBJECT_NAME":"STARLINK-37093","OBJECT_ID":"2026-050AD","EPOCH":"2026-03-19T13:33:27.860256","MEAN_MOTION":16.00670231,"ECCENTRICITY":0.0001079,"INCLINATION":53.1623,"RA_OF_ASC_NODE":232.5098,"ARG_OF_PERICENTER":125.0257,"MEAN_ANOMALY":235.0876,"EPHEMERIS_TYPE":0,"CLASSIFICATION_TYPE":"U","NORAD_CAT_ID":68194,"ELEMENT_SET_NO":999,"REV_AT_EPOCH":203,"BSTAR":-0.0012185,"MEAN_MOTION_DOT":-0.00668674,"MEAN_MOTION_DDOT":0.00016258},{"OBJECT_NAME":"STARLINK-37058","OBJECT_ID":"2026-050AE","EPOCH":"2026-03-19T07:32:38.613984","MEAN_MOTION":16.02049525,"ECCENTRICITY":0.0002524,"INCLINATION":53.1616,"RA_OF_ASC_NODE":233.7917,"ARG_OF_PERICENTER":340.0442,"MEAN_ANOMALY":20.049,"EPHEMERIS_TYPE":0,"CLASSIFICATION_TYPE":"U","NORAD_CAT_ID":68195,"ELEMENT_SET_NO":999,"REV_AT_EPOCH":43,"BSTAR":-0.0012605,"MEAN_MOTION_DOT":-0.00749084,"MEAN_MOTION_DDOT":0.00020203},{"OBJECT_NAME":"YAOGAN-50 02","OBJECT_ID":"2026-051A","EPOCH":"2026-03-20T00:00:02.495232","MEAN_MOTION":14.02354822,"ECCENTRICITY":0.00855894,"INCLINATION":141.9942,"RA_OF_ASC_NODE":256.6193,"ARG_OF_PERICENTER":153.1893,"MEAN_ANOMALY":207.328,"EPHEMERIS_TYPE":0,"CLASSIFICATION_TYPE":"U","NORAD_CAT_ID":68196,"ELEMENT_SET_NO":999,"REV_AT_EPOCH":63,"BSTAR":2.823449e-5,"MEAN_MOTION_DOT":2.41e-6,"MEAN_MOTION_DDOT":0},{"OBJECT_NAME":"CZ-6A R/B","OBJECT_ID":"2026-051B","EPOCH":"2026-03-22T06:19:04.717920","MEAN_MOTION":14.56363282,"ECCENTRICITY":0.01858677,"INCLINATION":142.0318,"RA_OF_ASC_NODE":270.6738,"ARG_OF_PERICENTER":140.7574,"MEAN_ANOMALY":220.6787,"EPHEMERIS_TYPE":0,"CLASSIFICATION_TYPE":"U","NORAD_CAT_ID":68197,"ELEMENT_SET_NO":999,"REV_AT_EPOCH":99,"BSTAR":0.00019733931,"MEAN_MOTION_DOT":1.427e-5,"MEAN_MOTION_DDOT":0},{"OBJECT_NAME":"2026-052A","OBJECT_ID":"2026-052A","EPOCH":"2026-03-22T05:58:09.948864","MEAN_MOTION":15.09874697,"ECCENTRICITY":0.00125164,"INCLINATION":97.537,"RA_OF_ASC_NODE":157.4026,"ARG_OF_PERICENTER":242.4416,"MEAN_ANOMALY":117.5543,"EPHEMERIS_TYPE":0,"CLASSIFICATION_TYPE":"U","NORAD_CAT_ID":68198,"ELEMENT_SET_NO":999,"REV_AT_EPOCH":92,"BSTAR":0.00055006506,"MEAN_MOTION_DOT":8.863e-5,"MEAN_MOTION_DDOT":0},{"OBJECT_NAME":"YUXING-3 06","OBJECT_ID":"2026-052B","EPOCH":"2026-03-22T18:40:38.361792","MEAN_MOTION":15.10019513,"ECCENTRICITY":0.0011661,"INCLINATION":97.5372,"RA_OF_ASC_NODE":157.9244,"ARG_OF_PERICENTER":241.9593,"MEAN_ANOMALY":118.0457,"EPHEMERIS_TYPE":0,"CLASSIFICATION_TYPE":"U","NORAD_CAT_ID":68199,"ELEMENT_SET_NO":999,"REV_AT_EPOCH":100,"BSTAR":0.00032387,"MEAN_MOTION_DOT":5.209e-5,"MEAN_MOTION_DDOT":0},{"OBJECT_NAME":"2026-052C","OBJECT_ID":"2026-052C","EPOCH":"2026-03-22T05:56:28.383072","MEAN_MOTION":15.10146722,"ECCENTRICITY":0.0011362,"INCLINATION":97.5366,"RA_OF_ASC_NODE":157.4041,"ARG_OF_PERICENTER":246.4217,"MEAN_ANOMALY":113.582,"EPHEMERIS_TYPE":0,"CLASSIFICATION_TYPE":"U","NORAD_CAT_ID":68200,"ELEMENT_SET_NO":999,"REV_AT_EPOCH":91,"BSTAR":0.00032993858,"MEAN_MOTION_DOT":5.327e-5,"MEAN_MOTION_DDOT":0}]
